( Generated by ConversationalQml gcode_builder )
( Program: Custom Profiling )
( Date: 2026-03-24 22:33:28 )
G21  (mm)
G90  (absolute)
G94  (feed per min)
G18  (ZX plane)

(----------Operation #3: Tool Change----------)

o<tc_at_g28> call [1]

(----------Operation #4: Define Profile----------)

; The drawn profile is represented in the custom profiling section.

(----------Operation #5: Custom Profiling----------)

G97 M4 S1000.0
G95 F0.3
G0 X51.500 Z1.000
G0 X50.000
G1 Z-63.500
G0 X50.500 Z-63.000
G0 Z1.000
G0 X49.000
G1 Z-63.000
G0 X49.500 Z-62.500
G0 Z1.000
G0 X48.000
G1 Z-62.500
G0 X48.500 Z-62.000
G0 Z1.000
G0 X47.000
G1 Z-62.000
G0 X47.500 Z-61.500
G0 Z1.000
G0 X46.000
G1 Z-61.500
G0 X46.500 Z-61.000
G0 Z1.000
G0 X45.000
G1 Z-61.000
G0 X45.500 Z-60.500
G0 Z1.000
G0 X44.000
G1 Z-60.500
G0 X44.500 Z-60.000
G0 Z1.000
G0 X43.000
G1 Z-59.910
G0 X43.500 Z-59.410
G0 Z1.000
G0 X42.000
G1 Z-58.910
G0 X42.500 Z-58.410
G0 Z1.000
G0 X41.000
G1 Z-55.910
G0 X41.500 Z-55.410
G0 Z1.000
G0 X40.000
G1 Z-38.950
G0 X40.500 Z-38.450
G0 Z1.000
G0 X39.000
G1 Z-38.798
G0 X39.500 Z-38.298
G0 Z1.000
G0 X38.000
G1 Z-38.539
G0 X38.500 Z-38.039
G0 Z1.000
G0 X37.000
G1 Z-38.165
G0 X37.500 Z-37.665
G0 Z1.000
G0 X36.000
G1 Z-37.660
G0 X36.500 Z-37.160
G0 Z1.000
G0 X35.000
G1 Z-37.000
G0 X35.500 Z-36.500
G0 Z1.000
G0 X34.000
G1 Z-36.141
G0 X34.500 Z-35.641
G0 Z1.000
G0 X33.000
G1 Z-35.000
G0 X33.500 Z-34.500
G0 Z1.000
G0 X32.000
G1 Z-33.359
G0 X32.500 Z-32.859
G0 Z1.000
G0 X31.000
G1 Z-29.904
G0 X31.500 Z-29.404
G0 Z1.000
G0 X30.000
G1 Z-28.733
G0 X30.500 Z-28.233
G0 Z1.000
G0 X29.000
G1 Z-28.400
G0 X29.500 Z-27.900
G0 Z1.000
G0 X28.000
G1 Z-28.100
G0 X28.500 Z-27.600
G0 Z1.000
G0 X27.000
G1 Z-27.800
G0 X27.500 Z-27.300
G0 Z1.000
G0 X26.000
G1 Z-27.500
G0 X26.500 Z-27.000
G0 Z1.000
G0 X25.000
G1 Z-27.200
G0 X25.500 Z-26.700
G0 Z1.000
G0 X24.000
G1 Z-26.900
G0 X24.500 Z-26.400
G0 Z1.000
G0 X23.000
G1 Z-26.600
G0 X23.500 Z-26.100
G0 Z1.000
G0 X22.000
G1 Z-26.244
G0 X22.500 Z-25.744
G0 Z1.000
G0 X21.000
G1 Z-24.512
G0 X21.500 Z-24.012
G0 Z1.000
G0 X51.500

( contour pass: stock_x=1.000 stock_z=1.000 )
G0 X21.000 Z1.000
G1 X21.000 Z-24.512
G2 X22.425 Z-26.428 I2.000 K0.000
G1 X29.671 Z-28.601
G3 X31.080 Z-30.264 I-0.575 K-1.916
G2 X40.091 Z-38.959 I9.920 K1.264
G3 X41.000 Z-39.954 I-0.091 K-0.996
G1 X41.000 Z-55.910
G2 X43.764 Z-60.382 I5.000 K0.000
G1 X51.000 Z-64.000
G0 X51.500 Z1.000


G28
M30