( Generated by TeachInLathe Conversational)
( Program: Duplicated Program )
( Date: 2026-04-09 23:51:54 )
G21  (mm)
G90  (absolute distance mode)
G95  (feed per rev)
G18  (ZX plane)

(----------Operation #3: Tool Change----------)

o<tc_at_g28> call [1]

(----------Operation #6: Define Profile----------)

; The drawn profile is represented in the custom profiling section.

(----------Operation #7: Custom Profiling----------)

G97 M4 S1000
G95 F0.1
G0 X50.500 Z2.000
G0 X49.000
G1 Z-64.500
G0 X49.500 Z-64.000
G0 Z2.000
G0 X48.000
G1 Z-64.000
G0 X48.500 Z-63.500
G0 Z2.000
G0 X47.000
G1 Z-63.500
G0 X47.500 Z-63.000
G0 Z2.000
G0 X46.000
G1 Z-63.000
G0 X46.500 Z-62.500
G0 Z2.000
G0 X45.000
G1 Z-62.500
G0 X45.500 Z-62.000
G0 Z2.000
G0 X44.000
G1 Z-62.000
G0 X44.500 Z-61.500
G0 Z2.000
G0 X43.000
G1 Z-61.500
G0 X43.500 Z-61.000
G0 Z2.000
G0 X42.000
G1 Z-60.910
G0 X42.500 Z-60.410
G0 Z2.000
G0 X41.000
G1 Z-59.910
G0 X41.500 Z-59.410
G0 Z2.000
G0 X40.000
G1 Z-56.910
G0 X40.500 Z-56.410
G0 Z2.000
G0 X39.000
G1 Z-39.950
G0 X39.500 Z-39.450
G0 Z2.000
G0 X38.000
G1 Z-39.798
G0 X38.500 Z-39.298
G0 Z2.000
G0 X37.000
G1 Z-39.539
G0 X37.500 Z-39.039
G0 Z2.000
G0 X36.000
G1 Z-39.165
G0 X36.500 Z-38.665
G0 Z2.000
G0 X35.000
G1 Z-38.660
G0 X35.500 Z-38.160
G0 Z2.000
G0 X34.000
G1 Z-38.000
G0 X34.500 Z-37.500
G0 Z2.000
G0 X33.000
G1 Z-37.141
G0 X33.500 Z-36.641
G0 Z2.000
G0 X32.000
G1 Z-36.000
G0 X32.500 Z-35.500
G0 Z2.000
G0 X31.000
G1 Z-34.359
G0 X31.500 Z-33.859
G0 Z2.000
G0 X30.000
G1 Z-30.755
G0 X30.500 Z-30.255
G0 Z2.000
G0 X29.000
G1 Z-29.501
G0 X29.500 Z-29.001
G0 Z2.000
G0 X28.000
G1 Z-29.000
G0 X28.500 Z-28.500
G0 Z2.000
G0 X27.000
G1 Z-28.500
G0 X27.500 Z-28.000
G0 Z2.000
G0 X26.000
G1 Z-28.000
G0 X26.500 Z-27.500
G0 Z2.000
G0 X25.000
G1 Z-27.500
G0 X25.500 Z-27.000
G0 Z2.000
G0 X24.000
G1 Z-27.000
G0 X24.500 Z-26.500
G0 Z2.000
G0 X23.000
G1 Z-26.500
G0 X23.500 Z-26.000
G0 Z2.000
G0 X22.000
G1 Z-26.000
G0 X22.500 Z-25.500
G0 Z2.000
G0 X21.000
G1 Z-25.382
G0 X21.500 Z-24.882
G0 Z2.000
G0 X20.000
G1 Z-23.146
G0 X20.500 Z-22.646
G0 Z2.000
G0 X50.500

( contour pass: stock_x=0.000 stock_z=0.000 )
G0 X20.000 Z2.000
G1 X20.000 Z-23.146
G2 X21.658 Z-25.829 I3.000 K0.000
G1 X28.962 Z-29.481
G3 X30.056 Z-31.058 I-0.894 K-1.789
G2 X39.091 Z-39.959 I9.944 K1.058
G3 X40.000 Z-40.954 I-0.091 K-0.996
G1 X40.000 Z-56.910
G2 X42.764 Z-61.382 I5.000 K0.000
G1 X50.000 Z-65.000
G0 X50.500 Z2.000


G28  (rapid move to predefined position)
M30