( Generated by ConversationalQml gcode_builder )
( Program: Test Operations List )
( Date: 2026-02-28 00:40:33 )
G21  (mm)
G90  (absolute)
G94  (feed per min)
G18  (ZX plane)

( Operation #1: type=changeTool )

( Generate GCode unchecked, code not generated for this operation)

( Operation #2: type=defineProfile )

( Generate GCode unchecked, code not generated for this operation)

( Operation #3: type=facing )

( Generate GCode unchecked, code not generated for this operation)

( Operation #4: type=changeTool )

G53 G0 X0.0
G53 G0 Z0.0
M6 T1 G43

( Operation #5: type=defineProfile )

O5 SUB
	G0 X20.000000 Z0.000000
	G1 X20.000000 Z-23.145898
	G2 X21.658359 Z-25.829180 I3.000000 K0.000000
	G1 X28.961794 Z-29.480897
	G3 X30.056139 Z-31.058126 I-0.894427 K-1.788854
	G2 X37.692308 Z-39.730085 I9.943861 K1.058126
	G3 X40.000000 Z-42.649111 I-0.692308 K-2.919026
	G1 X40.000000 Z-56.909830
	G2 X42.763932 Z-61.381966 I5.000000 K0.000000
	G1 X50.000000 Z-65.000000
O5 ENDSUB

( Operation #6: type=profiling )

G97 M3 S1502.0
G95 F0.3
G71.1 Q5 X52.0 Z0.0 D0.5 I2.0 R1.0

( Operation #7: type=changeTool )

( Generate GCode unchecked, code not generated for this operation)

( Operation #8: type=threading )

( Generate GCode unchecked, code not generated for this operation)

( Operation #9: type=changeTool )

( Generate GCode unchecked, code not generated for this operation)

( Operation #10: type=drilling )

( Generate GCode unchecked, code not generated for this operation)

( Operation #11: type=tapping )

( Generate GCode unchecked, code not generated for this operation)

( Operation #12: type=parting )

( Generate GCode unchecked, code not generated for this operation)


M30